FLOCK 2K-31             
1 42869U 17042AW  19244.87706931  .00005440  00000-0  14088-3 0  9991
2 42869  96.9291 123.6085 0008466 314.7862  45.2695 15.39401472119533
FLOCK 2K-32             
1 42870U 17042AX  19244.87436507  .00005942  00000-0  15370-3 0  9994
2 42870  96.9292 123.6014 0008470 315.9512  44.1060 15.39400296119535
FLOCK 2K-29             
1 42871U 17042AY  19244.87260208  .00005377  00000-0  13923-3 0  9992
2 42871  96.9295 123.6304 0008536 314.8979  45.1575 15.39410179119532
FLOCK 2K-30             
1 42872U 17042AZ  19245.19485753  .00005778  00000-0  14940-3 0  9998
2 42872  96.9298 123.9494 0008479 314.4311  45.6242 15.39423998119574
FLOCK 2K-44             
1 42873U 17042BA  19244.86730704  .00005484  00000-0  14183-3 0  9994
2 42873  96.9289 123.6156 0008991 302.4895  57.5482 15.39433200119531
FLOCK 2K-43             
1 42874U 17042BB  19245.22343838  .00001788  00000-0  53050-4 0  9994
2 42874  96.9294 121.6068 0011105 314.9715  45.0628 15.35975900119424
FLOCK 2K-41             
1 42875U 17042BC  19244.91745869  .00005518  00000-0  14268-3 0  9992
2 42875  96.9296 123.7329 0009515 304.6793  55.3557 15.39436237119541
FLOCK 2K-36             
1 42876U 17042BD  19244.89301126  .00008311  00000-0  20699-3 0  9993
2 42876  96.9287 123.7644 0009180 305.1742  54.8645 15.40436064119542
FLOCK 2K-35             
1 42877U 17042BE  19245.19000323  .00005654  00000-0  14619-3 0  9995
2 42877  96.9295 123.9713 0009393 302.8219  57.2123 15.39426141119585
FLOCK 2K-34             
1 42878U 17042BF  19245.10364104  .00007952  00000-0  20212-3 0  9996
2 42878  96.9290 123.9120 0009031 304.9190  55.1208 15.39830275119570
FLOCK 2K-33             
1 42879U 17042BG  19244.86536511  .00010445  00000-0  24487-3 0  9991
2 42879  96.9285 124.6393 0008502 300.9076  59.1336 15.42207671119608
FLOCK 2K-28             
1 42880U 17042BH  19244.90224298  .00005524  00000-0  15942-3 0  9992
2 42880  96.9296 121.3383 0010850 314.5611  45.4747 15.36008847119375
LEMUR-2-ARTFISCHER      
1 42881U 17042BJ  19245.20756767  .00005719  00000-0  14967-3 0  9990
2 42881  96.9286 123.5106 0010100 309.0129  51.0218 15.39043643119533
FLOCK 2K-27             
1 42882U 17042BK  19244.86876053  .00010173  00000-0  25115-3 0  9990
2 42882  96.9281 123.7990 0009106 305.1421  54.8973 15.40645971119542
FLOCK 2K-26             
1 42883U 17042BL  19245.20626132  .00008496  00000-0  21325-3 0  9995
2 42883  96.9286 124.1977 0009373 301.7051  58.3282 15.40190962119609
FLOCK 2K-25             
1 42884U 17042BM  19244.86241371  .00005137  00000-0  13307-3 0  9995
2 42884  96.9293 123.6390 0009488 304.9146  55.1209 15.39412742119535
FLOCK 2K-20             
1 42885U 17042BN  19245.20568416  .00007728  00000-0  19539-3 0  9998
2 42885  96.9292 124.0870 0009520 301.9717  58.0604 15.39994535119593
FLOCK 2K-19             
1 42886U 17042BP  19245.18490200  .00005810  00000-0  15019-3 0  9990
2 42886  96.9295 123.9859 0009894 303.3156  56.7143 15.39416167119581
FLOCK 2K-18             
1 42887U 17042BQ  19245.17540914  .00005687  00000-0  14692-3 0  9996
2 42887  96.9296 123.9886 0009963 302.0915  57.9364 15.39445180119584
FLOCK 2K-17             
1 42888U 17042BR  19244.75462459  .00008382  00000-0  20895-3 0  9994
2 42888  96.9282 123.7180 0009272 301.5806  58.4535 15.40401916119533
FLOCK 2K-16             
1 42889U 17042BS  19244.85766844  .00005424  00000-0  14030-3 0  9999
2 42889  96.9301 123.6844 0009495 302.3787  57.6540 15.39430323119535
FLOCK 2K-15             
1 42890U 17042BT  19245.17274675  .00005007  00000-0  12960-3 0  9990
2 42890  96.9307 124.0666 0009854 301.7966  58.2321 15.39442940119588
FLOCK 2K-13             
1 42891U 17042BU  19244.88099967  .00009236  00000-0  22628-3 0  9997
2 42891  96.9315 123.9989 0009192 297.1963  62.8347 15.40904689119555
FLOCK 2K-14             
1 42892U 17042BV  19245.11133284  .00008146  00000-0  20450-3 0  9996
2 42892  96.9283 124.0119 0009436 300.0613  59.9698 15.40196503119581
FLOCK 2K-12             
1 42893U 17042BW  19244.90772129  .00005691  00000-0  14712-3 0  9996
2 42893  96.9299 123.7820 0009869 303.0222  57.0076 15.39423526119544
FLOCK 2K-11             
1 42894U 17042BX  19244.85512751  .00005567  00000-0  14392-3 0  9990
2 42894  96.9296 123.6776 0009643 299.0765  60.9515 15.39434338119530
FLOCK 2K-10             
1 42895U 17042BY  19244.90972040  .00005609  00000-0  14506-3 0  9992
2 42895  96.9293 123.7171 0009844 300.6077  59.4199 15.39416279119542
FLOCK 2K-09             
1 42896U 17042BZ  19245.18381853  .00005245  00000-0  13145-3 0  9994
2 42896  96.9281 124.5092 0009285 297.6847  62.3458 15.40415383119795
FLOCK 2K-06             
1 42897U 17042CA  19244.87889665  .00003263  00000-0  85313-4 0  9999
2 42897  96.9295 123.6279 0008574 317.5092  42.5490 15.39389531119533
VENUS                   
1 42901U 17044B   19245.19050295 -.00001447  00000-0 -35599-3 0  9996
2 42901  98.2797 320.2020 0002931  41.1587 318.9777 14.50848340110359
COSMOS 2520             
1 42907U 17046A   19244.22028520  .00000113  00000-0  00000-0 0  9996
2 42907   0.0219 121.0736 0000589 193.9486 149.3576  1.00274937  7520
TNS 0-2                 
1 42914U 98067ND  19245.20397103  .00200384  26692-4  51897-3 0  9995
2 42914  51.6292 253.4423 0005359  62.5823 297.5729 15.94667565117024
TDRS 13                 
1 42915U 17047A   19245.22711671 -.00000123  00000-0  00000+0 0  9994
2 42915   6.0121 330.3083 0013372  98.7279 342.3441  1.00271572  7510
QZS-3 (MICHIBIKI-3)     
1 42917U 17048A   19244.89424378 -.00000372  00000-0  00000-0 0  9991
2 42917   0.0687 229.8966 0001594 304.4698 255.2793  1.00276300  7381
COSMOS 2521             
1 42919U 17037D   19244.87619013  .00698383  30735-3  45647-3 0  9995
2 42919  97.8318  34.5012 0001635 130.4948  26.7605 16.17360001114559
FORMOSAT-5              
1 42920U 17049A   19245.20016710 -.00000048  00000-0 -81680-6 0  9999
2 42920  98.3265 322.6832 0011396 132.5682 227.6486 14.50842626107073
AMAZONAS 5              
1 42934U 17053A   19245.09077323 -.00000306  00000-0  00000+0 0  9999
2 42934   0.0498 313.2014 0001599 205.6837 153.7257  1.00272901  7250
COSMOS 2522 [GLONASS-M] 
1 42939U 17055A   19245.09077322  .00000021  00000-0  00000+0 0  9998
2 42939  64.4649 277.0711 0009862 243.4115 117.8801  2.13102033 15133
ASIASAT 9               
1 42942U 17057A   19245.04771509 -.00000384  00000-0  00000+0 0  9990
2 42942   0.0173 132.5718 0001977  26.0356 321.5633  1.00268965  7071
YAOGAN-30 A             
1 42945U 17058A   19245.18209520  .00000122  00000-0  15336-4 0  9990
2 42945  34.9994 170.7724 0003988 333.8880  26.1627 14.89656054104897
YAOGAN-30 B             
1 42946U 17058B   19245.07059851  .00000106  00000-0  13681-4 0  9992
2 42946  34.9994 171.7471 0001995 181.5601 178.5094 14.89661258104873
YAOGAN-30 C             
1 42947U 17058C   19245.09371060  .00000109  00000-0  14014-4 0  9998
2 42947  34.9992 171.9240 0006615  18.2968 341.7961 14.89664537104863
INTELSAT 37E (IS-37E)   
1 42950U 17059A   19244.89971785 -.00000164  00000-0  00000-0 0  9998
2 42950   0.0069 152.7724 0002551  10.4780 123.4082  1.00271713  7186
BSAT-4A                 
1 42951U 17059B   19244.94385350 -.00000374  00000-0  00000-0 0  9995
2 42951   0.0163 348.2910 0001993 111.9426 330.1999  1.00270231  6934
VRSS-2                  
1 42954U 17060A   19245.10872819 -.00000003  00000-0  70296-5 0  9998
2 42954  97.9585 320.6466 0018237 211.5436 148.4697 14.76018880102206
IRIDIUM 133             
1 42955U 17061A   19244.83049579  .00000076  00000-0  20203-4 0  9999
2 42955  86.4016 341.7439 0001826 105.3914 254.7483 14.34217340 99261
IRIDIUM 100             
1 42956U 17061B   19244.82414406  .00000069  00000-0  17564-4 0  9992
2 42956  86.4013 341.7245 0002249  96.3947 263.7505 14.34219365 99285
IRIDIUM 122             
1 42957U 17061C   19244.86220716  .00000068  00000-0  17322-4 0  9997
2 42957  86.4014 341.7039 0001802 114.4776 245.6608 14.34216809 99276
IRIDIUM 129             
1 42958U 17061D   19244.88756186  .00000068  00000-0  17247-4 0  9991
2 42958  86.4015 341.7332 0001865 104.6704 255.4699 14.34219517 99295
IRIDIUM 119             
1 42959U 17061E   19244.85587599  .00000062  00000-0  15256-4 0  9991
2 42959  86.4015 341.7298 0001786 101.6794 258.4603 14.34218286 99307
IRIDIUM 107             
1 42960U 17061F   19244.87489038  .00000108  00000-0  31424-4 0  9990
2 42960  86.4015 341.7277 0002197  99.4894 260.6550 14.34216200 99320
IRIDIUM 132             
1 42961U 17061G   19244.88123223  .00000072  00000-0  18621-4 0  9997
2 42961  86.4015 341.7180 0002349 103.8002 256.3456 14.34217221 99314
IRIDIUM 136             
1 42962U 17061H   19244.84318829  .00000068  00000-0  17308-4 0  9998
2 42962  86.4016 341.7331 0001746  96.7010 263.4384 14.34217675 99326
IRIDIUM 139             
1 42963U 17061J   19244.84951934  .00000081  00000-0  21695-4 0  9998
2 42963  86.4017 341.7524 0002114 100.8916 259.2517 14.34216400 99331
IRIDIUM 125             
1 42964U 17061K   19244.83682612  .00000053  00000-0  11703-4 0  9990
2 42964  86.4018 341.7738 0002193  99.3620 260.7824 14.34215470 99346
QZS-4 (MICHIBIKI-4)     
1 42965U 17062A   19244.64894432 -.00000323  00000-0  00000+0 0  9990
2 42965  40.7738  15.4329 0745837 269.2973  68.6309  1.00283699  6942
SES-11 (ECHOSTAR 105)   
1 42967U 17063A   19244.88235791 -.00000113  00000-0  00000-0 0  9994
2 42967   0.0413 272.0306 0002388 259.6690  21.7376  1.00271626  6946
SENTINEL-5P             
1 42969U 17064A   19244.91275711 -.00000035  00000-0  39804-5 0  9999
2 42969  98.7388 183.3430 0001194  87.6179 272.5134 14.19543475 97676
KESTREL EYE IIM (KE2M)  
1 42982U 98067NE  19245.10249633  .00011813  00000-0  12991-3 0  9993
2 42982  51.6369 311.1764 0004632  65.1029 295.0446 15.63645930105714
KOREASAT 5A             
1 42984U 17067A   19244.99768378 -.00000382  00000-0  00000+0 0  9998
2 42984   0.0281 119.8856 0001658  38.2799 295.0118  1.00271274  6765
